OBJECT_NAME,OBJECT_ID,EPOCH,MEAN_MOTION,ECCENTRICITY,INCLINATION,RA_OF_ASC_NODE,ARG_OF_PERICENTER,MEAN_ANOMALY,EPHEMERIS_TYPE,CLASSIFICATION_TYPE,NORAD_CAT_ID,ELEMENT_SET_NO,REV_AT_EPOCH,BSTAR,MEAN_MOTION_DOT,MEAN_MOTION_DDOT
STARLINK-6211,2023-088M,2026-06-15T00:45:45.595008,15.27575771,.00013594,43.0036,280.5739,271.7129,88.3567,0,U,57059,999,16522,-.5168985E-5,-.404E-5,0
STARLINK-6227,2023-088N,2026-06-15T00:34:52.294368,15.27572943,.00011671,43.0020,281.3705,270.8448,89.2270,0,U,57060,999,16521,-.10855346E-4,-.561E-5,0
STARLINK-5869,2023-088P,2026-06-15T01:07:15.315456,15.27574421,.00014741,43.0040,284.0946,279.8177,80.2509,0,U,57061,999,16420,-.28617995E-4,-.1049E-4,0
STARLINK-5536,2023-088Q,2026-06-15T00:11:33.073152,15.27579560,.00018024,43.0028,266.5210,251.7560,108.3095,0,U,57062,999,16538,.4013788E-5,-.152E-5,0
STARLINK-5832,2023-088R,2026-06-14T14:21:49.258656,15.27577553,.0001501,43.0116,283.3436,270.8373,89.2307,0,U,57063,999,16515,.48069E-5,-.13E-5,0
STARLINK-5822,2023-088S,2026-06-15T01:07:57.595296,15.27591271,.00033426,43.0037,280.6926,288.9673,71.0816,0,U,57064,999,16424,-.22355898E-3,-.6413E-4,0
STARLINK-5830,2023-088T,2026-06-12T15:27:30.363552,15.27577373,.00017417,42.9998,297.8505,266.8281,93.2371,0,U,57065,999,16383,.16811301E-4,.2E-5,0
STARLINK-5827,2023-088U,2026-06-14T14:16:16.296384,15.27574478,.0001965,43.0055,283.3124,272.1461,87.9165,0,U,57066,999,16417,.35989E-5,-.163E-5,0
STARLINK-5824,2023-088V,2026-06-15T07:50:30.331680,15.27575122,.0001566,43.0016,279.3387,276.0289,84.0384,0,U,57067,999,16526,.20227E-4,.294E-5,0
STARLINK-5844,2023-088W,2026-06-14T14:43:19.496640,15.27576333,.000101,43.0093,286.8655,303.2709,56.8046,0,U,57068,999,16511,.3577E-4,.722E-5,0
STARLINK-5821,2023-088X,2026-06-14T13:55:00.665184,15.27576617,.000267,42.9983,269.3503,289.4863,70.5700,0,U,57069,999,16514,.31006E-4,.591E-5,0
STARLINK-5828,2023-088Y,2026-06-15T12:50:20.469696,15.27574842,.00019,43.0012,263.6259,272.5068,87.5566,0,U,57070,999,16546,.20778E-5,-.205E-5,0
STARLINK-5834,2023-088Z,2026-06-15T13:12:32.859648,15.27575798,.0001332,43.0056,263.7460,264.8380,95.2320,0,U,57071,999,16529,.48896E-5,-.128E-5,0
STARLINK-5843,2023-088AA,2026-06-15T13:01:26.878080,15.27575389,.0001706,43.0011,263.6836,265.2222,94.8435,0,U,57072,999,16448,.22116E-4,.346E-5,0
STARLINK-5838,2023-088AB,2026-06-13T13:51:11.745792,15.27589430,.0001778,43.0018,274.7308,270.6538,89.4110,0,U,57073,999,16418,.77932E-4,.1883E-4,0
STARLINK-5773,2023-088AC,2026-06-14T14:37:46.403040,15.27582658,.0001226,43.0012,286.8303,261.1257,98.9456,0,U,57074,999,16511,.90273E-4,.2223E-4,0
STARLINK-5542,2023-088AD,2026-06-14T23:27:07.859520,15.27574812,.00011791,43.0009,266.3191,275.4425,84.6292,0,U,57075,999,16538,-.5916633E-5,-.425E-5,0
STARLINK-6155,2023-088AE,2026-06-15T13:07:00.007104,15.27575998,.0002177,43.0068,263.7157,279.9684,80.0922,0,U,57076,999,16529,.13327E-4,.104E-5,0
STARLINK-6194,2023-088AF,2026-06-15T13:21:48.015936,15.27573373,.0001216,42.9993,263.7882,272.3932,87.6780,0,U,57077,999,16562,-.18927E-5,-.314E-5,0
STARLINK-6245,2023-088AH,2026-06-14T23:41:56.025600,15.27575534,.00012161,43.0028,266.4006,272.0698,88.0015,0,U,57079,999,16538,-.731216E-6,-.282E-5,0
STARLINK-6243,2023-088AJ,2026-06-15T13:16:15.030336,15.27565522,.0001395,43.0015,263.7583,277.1566,82.9127,0,U,57080,999,16529,.6183E-4,.1439E-4,0
STARLINK-6184,2023-088AK,2026-06-14T23:53:02.314752,15.27572940,.00015561,43.0029,266.4591,289.0750,70.9933,0,U,57081,999,16538,-.4946646E-5,-.398E-5,0
STARLINK-6248,2023-088AL,2026-06-14T14:07:45.119424,15.27584730,.0001339,42.9984,268.5614,289.9530,70.1177,0,U,57082,999,16532,.69534E-5,-.71E-6,0
STARLINK-6253,2023-088AM,2026-06-15T00:13:23.236608,15.27576526,.00017776,43.0035,266.5520,287.9066,72.1592,0,U,57083,999,16538,-.1861179E-5,-.314E-5,0
STARLINK-6240,2023-088AN,2026-06-14T23:47:29.096736,15.27577337,.00009358,43.0055,266.4284,277.0425,83.0320,0,U,57084,999,16538,.25723729E-4,.446E-5,0
STARLINK-6232,2023-088AP,2026-06-14T23:25:16.673088,15.27575157,.00011263,42.9910,266.3066,265.3400,94.7323,0,U,57085,999,16538,.16712154E-4,.198E-5,0
STARLINK-6247,2023-088AQ,2026-06-14T23:58:35.118912,15.27577508,.00018355,43.0036,266.4850,287.6530,72.4121,0,U,57086,999,16538,.45891037E-4,.1001E-4,0
STARLINK-6251,2023-088AR,2026-06-14T23:30:49.780512,15.27575555,.00011759,43.0013,266.3363,277.0387,83.0331,0,U,57087,999,16538,.3648327E-5,-.162E-5,0
STARLINK-6257,2023-088AS,2026-06-15T00:04:08.169312,15.27576739,.00018432,43.0068,266.5124,298.5182,61.5484,0,U,57088,999,16538,.9994707E-5,.13E-6,0
STARLINK-6259,2023-088AT,2026-06-14T00:24:23.187456,15.27576832,.00021316,43.0054,272.0091,286.7447,73.3171,0,U,57089,999,16523,.9461473E-5,-.2E-7,0
STARLINK-6254,2023-088AU,2026-06-14T00:04:01.656480,15.27573072,.00019724,42.9950,271.9003,248.8160,111.2481,0,U,57090,999,16523,.4611245E-5,-.135E-5,0
STARLINK-6262,2023-088AV,2026-06-14T23:45:37.835136,15.27574467,.00014566,43.0041,266.4097,272.9918,87.0767,0,U,57091,999,16538,.4587201E-5,-.136E-5,0
STARLINK-6225,2023-088AW,2026-06-14T23:40:04.778688,15.27594448,.00016475,43.0012,266.3867,272.6336,87.4327,0,U,57092,999,16538,.7790898E-5,-.48E-6,0
STARLINK-6229,2023-088AX,2026-06-15T00:02:17.959200,15.27586564,.00006022,42.9957,266.4936,70.5331,289.5586,0,U,57093,999,16538,.856046E-4,.2095E-4,0
STARLINK-6235,2023-088AY,2026-06-15T00:07:49.830240,15.27569387,.00028307,43.0067,266.5241,291.5617,68.4933,0,U,57094,999,16538,-.38892349E-4,-.1333E-4,0
STARLINK-6132,2023-090A,2026-06-15T01:30:52.504416,15.27577017,.00018576,43.0081,91.7108,269.8258,90.2381,0,U,57101,999,16522,.13101355E-4,.98E-6,0
STARLINK-6111,2023-090B,2026-06-15T01:41:58.740000,15.27576906,.00015646,43.0045,91.7671,239.9687,120.1009,0,U,57102,999,16522,.14508967E-4,.137E-5,0
STARLINK-6130,2023-090D,2026-06-15T01:36:25.382880,15.27578015,.00016389,43.0040,91.7374,269.6444,90.4220,0,U,57104,999,16521,.17696222E-4,.225E-5,0
STARLINK-6097,2023-090E,2026-06-15T01:45:40.792320,15.27583323,.00014448,43.0016,91.7820,257.6215,102.4475,0,U,57105,999,16522,.25644685E-4,.444E-5,0
STARLINK-6118,2023-090F,2026-06-15T01:29:01.404384,15.27578246,.00012734,43.0032,91.6977,256.6289,103.4421,0,U,57106,999,16522,.19796638E-4,.283E-5,0
STARLINK-6131,2023-090G,2026-06-15T11:52:57.980064,15.27573568,.0001157,43.0074,88.9289,271.0082,89.0638,0,U,57107,999,16529,-.67057E-5,-.447E-5,0
STARLINK-6099,2023-090H,2026-06-15T12:22:34.273344,15.27575258,.0001066,43.0038,89.0805,246.0949,113.9791,0,U,57108,999,16529,.18609E-4,.25E-5,0
STARLINK-6139,2023-090J,2026-06-15T11:36:31.603104,15.27559334,.0001234,43.0030,89.6950,274.6538,85.4173,0,U,57109,999,16528,.69297E-4,.1644E-4,0
STARLINK-6134,2023-090K,2026-06-14T12:44:40.047648,15.27579701,.00020351,43.0058,94.5975,275.1728,84.8892,0,U,57110,999,16514,.29706045E-4,.555E-5,0
STARLINK-6140,2023-090L,2026-06-15T12:09:36.942048,15.27576265,.000123,43.0053,89.0153,277.9932,82.0780,0,U,57111,999,16529,.14789E-4,.145E-5,0
STARLINK-6141,2023-090M,2026-06-15T01:34:34.401216,15.27576362,.00015188,43.0049,91.7234,263.6809,96.3870,0,U,57112,999,16522,.5799368E-5,-.103E-5,0
STARLINK-6142,2023-090N,2026-06-15T11:58:30.923328,15.27575666,.0001466,43.0111,88.9567,266.5876,93.4808,0,U,57113,999,16529,.27804E-4,.503E-5,0
STARLINK-6125,2023-090P,2026-06-15T12:04:04.844640,15.27578623,.0001181,43.0024,88.9893,251.2880,108.7843,0,U,57114,999,16529,.92405E-4,.2281E-4,0
STARLINK-6085,2023-090Q,2026-06-15T01:03:07.245504,15.17254397,.00179578,42.9985,83.9630,113.9229,246.3502,0,U,57115,999,16531,.16139337E-2,.32761E-3,0
STARLINK-6129,2023-090R,2026-06-14T12:15:04.448160,15.27587180,.00008411,43.0064,94.4488,262.5276,97.5480,0,U,57116,999,16514,.9033039E-5,-.13E-6,0
STARLINK-6148,2023-090S,2026-06-15T11:49:15.797280,15.27569789,.0000689,43.0033,88.9096,258.5159,101.5615,0,U,57117,999,16528,.3351E-4,.66E-5,0
STARLINK-6150,2023-090U,2026-06-15T01:47:31.753248,15.27578470,.00011193,43.0064,91.7843,265.8463,94.2261,0,U,57119,999,16522,.25846724E-4,.449E-5,0
STARLINK-6147,2023-090V,2026-06-15T12:13:19.220736,15.27575835,.0000727,43.0007,89.0305,272.1870,87.8899,0,U,57120,999,16529,.10603E-4,.3E-6,0
STARLINK-6152,2023-090W,2026-06-15T11:45:34.258176,15.27585597,.0000888,43.0012,88.8926,251.0143,109.0612,0,U,57121,999,16510,.54458E-4,.1237E-4,0
STARLINK-6149,2023-090X,2026-06-15T11:23:34.180224,15.27573646,.0001105,43.0024,89.6245,251.7003,108.3729,0,U,57122,999,16528,.3784E-4,.779E-5,0
STARLINK-6154,2023-090Y,2026-06-15T01:25:18.929568,15.27577894,.00014157,43.0049,91.6676,251.3865,108.6833,0,U,57123,999,16503,.9672202E-5,.4E-7,0
STARLINK-6146,2023-090Z,2026-06-15T12:18:51.643008,15.27579879,.0001841,43.0076,89.0612,282.7996,77.2649,0,U,57124,999,16529,.32667E-5,-.173E-5,0
STARLINK-6100,2023-090AA,2026-06-15T01:00:50.870880,15.27581402,.00011085,43.0034,73.4207,269.7078,90.3646,0,U,57125,999,16524,.1709846E-5,-.215E-5,0
STARLINK-6167,2023-090AB,2026-06-15T11:34:40.135872,15.27573930,.0000691,43.0033,89.6745,230.3418,129.7372,0,U,57126,999,16528,.44027E-4,.95E-5,0
STARLINK-6165,2023-090AC,2026-06-15T12:02:12.910848,15.27575192,.0000982,43.0026,88.9689,276.7842,83.2898,0,U,57127,999,16510,-.14722E-4,-.667E-5,0
STARLINK-6163,2023-090AD,2026-06-15T11:51:06.899040,15.27574598,.0000902,43.0015,88.9102,263.2875,96.7874,0,U,57128,999,16510,.19583E-4,.277E-5,0
STARLINK-6170,2023-090AE,2026-06-14T01:00:57.869280,15.27574203,.000149,43.0057,79.6797,264.2074,95.8608,0,U,57129,999,16508,-.2942881E-5,-.343E-5,0
STARLINK-6172,2023-090AF,2026-06-15T11:56:39.826752,15.27576849,.000048,43.0049,88.9462,329.1076,30.9747,0,U,57130,999,16510,.81276E-5,-.38E-6,0
STARLINK-6162,2023-090AG,2026-06-15T10:09:08.400096,15.27578195,.0001129,43.0023,71.1218,250.3533,109.7197,0,U,57131,999,16530,.35068E-4,.703E-5,0
STARLINK-6128,2023-090AH,2026-06-15T12:07:45.938784,15.27575335,.0001294,43.0051,88.9985,273.4125,86.6578,0,U,57132,999,16510,.30779E-5,-.177E-5,0
